{
  "type": "FeatureCollection",
  "features": [
    {
      "type": "Feature",
      "properties": {
        "norad_id": 37836,
        "name": "EUTELSAT 16A",
        "group": "eutelsat",
        "lat": -0.07950987951585932,
        "lon": -109.78136416837997,
        "alt_km": 35760.20830936327,
        "timestamp": "2025-12-02T10:50:46.944782+00:00",
        "meta_object_name": "EUTELSAT 16A",
        "meta_object_id": "2011-057A",
        "meta_epoch": "2025-12-02T03:35:11.864832",
        "meta_mean_motion": 1.00273296,
        "meta_eccentricity": 0.0006055,
        "meta_inclination": 0.0596,
        "meta_ra_of_asc_node": 344.3363,
        "meta_arg_of_pericenter": 273.4192,
        "meta_mean_anomaly": 243.3046,
        "meta_ephemeris_type": 0,
        "meta_classification_type": "U",
        "meta_norad_cat_id": 37836,
        "meta_element_set_no": 999,
        "meta_rev_at_epoch": 535,
        "meta_bstar": 0,
        "meta_mean_motion_dot": 1.25e-06,
        "meta_mean_motion_ddot": 0,
        "tle_line1": "1 37836U 11057A   25336.14944288  .00000125  00000+0  00000+0 0  9996",
        "tle_line2": "2 37836   0.0596 344.3363 0006055 273.4192 243.3046  1.00273296  5354"
      },
      "geometry": {
        "type": "Point",
        "coordinates": [
          -109.78136416837997,
          -0.07950987951585932
        ]
      }
    },
    {
      "type": "Feature",
      "properties": {
        "norad_id": 38992,
        "name": "EUTELSAT 21B",
        "group": "eutelsat",
        "lat": -0.08780152331958757,
        "lon": -104.18327191755164,
        "alt_km": 35772.959746601235,
        "timestamp": "2025-12-02T10:50:46.944793+00:00",
        "meta_object_name": "EUTELSAT 21B",
        "meta_object_id": "2012-062B",
        "meta_epoch": "2025-12-02T03:36:49.209120",
        "meta_mean_motion": 1.00270955,
        "meta_eccentricity": 0.0003184,
        "meta_inclination": 0.0687,
        "meta_ra_of_asc_node": 343.1579,
        "meta_arg_of_pericenter": 281.2329,
        "meta_mean_anomaly": 242.673,
        "meta_ephemeris_type": 0,
        "meta_classification_type": "U",
        "meta_norad_cat_id": 38992,
        "meta_element_set_no": 999,
        "meta_rev_at_epoch": 4785,
        "meta_bstar": 0,
        "meta_mean_motion_dot": 1.51e-06,
        "meta_mean_motion_ddot": 0,
        "tle_line1": "1 38992U 12062B   25336.15056955  .00000151  00000+0  00000+0 0  9992",
        "tle_line2": "2 38992   0.0687 343.1579 0003184 281.2329 242.6730  1.00270955 47856"
      },
      "geometry": {
        "type": "Point",
        "coordinates": [
          -104.18327191755164,
          -0.08780152331958757
        ]
      }
    },
    {
      "type": "Feature",
      "properties": {
        "norad_id": 39020,
        "name": "EUTELSAT 70B",
        "group": "eutelsat",
        "lat": -0.05401858994139,
        "lon": -55.23561541600668,
        "alt_km": 35777.992273029464,
        "timestamp": "2025-12-02T10:50:46.944805+00:00",
        "meta_object_name": "EUTELSAT 70B",
        "meta_object_id": "2012-069A",
        "meta_epoch": "2025-12-02T02:08:07.509120",
        "meta_mean_motion": 1.00271506,
        "meta_eccentricity": 0.0004354,
        "meta_inclination": 0.0627,
        "meta_ra_of_asc_node": 358.6341,
        "meta_arg_of_pericenter": 242.3226,
        "meta_mean_anomaly": 292.7694,
        "meta_ephemeris_type": 0,
        "meta_classification_type": "U",
        "meta_norad_cat_id": 39020,
        "meta_element_set_no": 999,
        "meta_rev_at_epoch": 4753,
        "meta_bstar": 0,
        "meta_mean_motion_dot": -2.3e-07,
        "meta_mean_motion_ddot": 0,
        "tle_line1": "1 39020U 12069A   25336.08897580 -.00000023  00000+0  00000+0 0  9990",
        "tle_line2": "2 39020   0.0627 358.6341 0004354 242.3226 292.7694  1.00271506 47538"
      },
      "geometry": {
        "type": "Point",
        "coordinates": [
          -55.23561541600668,
          -0.05401858994139
        ]
      }
    },
    {
      "type": "Feature",
      "properties": {
        "norad_id": 39122,
        "name": "EUTELSAT 117 WEST A",
        "group": "eutelsat",
        "lat": 0.028365149189327112,
        "lon": 117.40658652698563,
        "alt_km": 35795.17406088877,
        "timestamp": "2025-12-02T10:50:46.944818+00:00",
        "meta_object_name": "EUTELSAT 117 WEST A",
        "meta_object_id": "2013-012A",
        "meta_epoch": "2025-12-02T02:57:25.216992",
        "meta_mean_motion": 1.00271769,
        "meta_eccentricity": 0.000309,
        "meta_inclination": 0.0337,
        "meta_ra_of_asc_node": 50.9241,
        "meta_arg_of_pericenter": 200.5803,
        "meta_mean_anomaly": 107.2915,
        "meta_ephemeris_type": 0,
        "meta_classification_type": "U",
        "meta_norad_cat_id": 39122,
        "meta_element_set_no": 999,
        "meta_rev_at_epoch": 4645,
        "meta_bstar": 0,
        "meta_mean_motion_dot": 8e-08,
        "meta_mean_motion_ddot": 0,
        "tle_line1": "1 39122U 13012A   25336.12320853  .00000008  00000+0  00000+0 0  9993",
        "tle_line2": "2 39122   0.0337  50.9241 0003090 200.5803 107.2915  1.00271769 46450"
      },
      "geometry": {
        "type": "Point",
        "coordinates": [
          117.40658652698563,
          0.028365149189327112
        ]
      }
    },
    {
      "type": "Feature",
      "properties": {
        "norad_id": 39163,
        "name": "EUTELSAT 7B",
        "group": "eutelsat",
        "lat": -0.08128231757254803,
        "lon": -118.81184228377828,
        "alt_km": 35779.780749063015,
        "timestamp": "2025-12-02T10:50:46.944830+00:00",
        "meta_object_name": "EUTELSAT 7B",
        "meta_object_id": "2013-022A",
        "meta_epoch": "2025-12-02T03:32:42.105120",
        "meta_mean_motion": 1.00272256,
        "meta_eccentricity": 0.0004285,
        "meta_inclination": 0.0675,
        "meta_ra_of_asc_node": 356.6053,
        "meta_arg_of_pericenter": 314.7831,
        "meta_mean_anomaly": 180.0536,
        "meta_ephemeris_type": 0,
        "meta_classification_type": "U",
        "meta_norad_cat_id": 39163,
        "meta_element_set_no": 999,
        "meta_rev_at_epoch": 4598,
        "meta_bstar": 0,
        "meta_mean_motion_dot": 6.9e-07,
        "meta_mean_motion_ddot": 0,
        "tle_line1": "1 39163U 13022A   25336.14770955  .00000069  00000+0  00000+0 0  9990",
        "tle_line2": "2 39163   0.0675 356.6053 0004285 314.7831 180.0536  1.00272256 45980"
      },
      "geometry": {
        "type": "Point",
        "coordinates": [
          -118.81184228377828,
          -0.08128231757254803
        ]
      }
    },
    {
      "type": "Feature",
      "properties": {
        "norad_id": 39612,
        "name": "EXPRESS-AT1",
        "group": "eutelsat",
        "lat": -4.197013794940876e-05,
        "lon": -69.76373052962546,
        "alt_km": 35787.99215727052,
        "timestamp": "2025-12-02T10:50:46.944842+00:00",
        "meta_object_name": "EXPRESS-AT1",
        "meta_object_id": "2014-010A",
        "meta_epoch": "2025-12-02T03:46:40.765728",
        "meta_mean_motion": 1.0026954,
        "meta_eccentricity": 3.96e-05,
        "meta_inclination": 0.0131,
        "meta_ra_of_asc_node": 275.0216,
        "meta_arg_of_pericenter": 233.472,
        "meta_mean_anomaly": 35.4546,
        "meta_ephemeris_type": 0,
        "meta_classification_type": "U",
        "meta_norad_cat_id": 39612,
        "meta_element_set_no": 999,
        "meta_rev_at_epoch": 4284,
        "meta_bstar": 0,
        "meta_mean_motion_dot": 1e-06,
        "meta_mean_motion_ddot": 0,
        "tle_line1": "1 39612U 14010A   25336.15741627  .00000100  00000+0  00000+0 0  9998",
        "tle_line2": "2 39612   0.0131 275.0216 0000396 233.4720  35.4546  1.00269540 42842"
      },
      "geometry": {
        "type": "Point",
        "coordinates": [
          -69.76373052962546,
          -4.197013794940876e-05
        ]
      }
    },
    {
      "type": "Feature",
      "properties": {
        "norad_id": 39613,
        "name": "EXPRESS-AT2",
        "group": "eutelsat",
        "lat": 0.03801324402703333,
        "lon": 14.102492899869095,
        "alt_km": 35785.673081708046,
        "timestamp": "2025-12-02T10:50:46.944854+00:00",
        "meta_object_name": "EXPRESS-AT2",
        "meta_object_id": "2014-010B",
        "meta_epoch": "2025-12-02T04:10:27.757632",
        "meta_mean_motion": 1.00272559,
        "meta_eccentricity": 0.0001203,
        "meta_inclination": 0.0171,
        "meta_ra_of_asc_node": 300.3195,
        "meta_arg_of_pericenter": 346.5253,
        "meta_mean_anomaly": 346.9177,
        "meta_ephemeris_type": 0,
        "meta_classification_type": "U",
        "meta_norad_cat_id": 39613,
        "meta_element_set_no": 999,
        "meta_rev_at_epoch": 4252,
        "meta_bstar": 0,
        "meta_mean_motion_dot": -2.6e-06,
        "meta_mean_motion_ddot": 0,
        "tle_line1": "1 39613U 14010B   25336.17393238 -.00000260  00000+0  00000+0 0  9990",
        "tle_line2": "2 39613   0.0171 300.3195 0001203 346.5253 346.9177  1.00272559 42529"
      },
      "geometry": {
        "type": "Point",
        "coordinates": [
          14.102492899869095,
          0.03801324402703333
        ]
      }
    }
  ]
}